OPTICUBE 04             
1 41851U 16067D   26068.51005515  .00003771  00000+0  24102-3 0  9992
2 41851  98.0811 275.5525 0017089  94.6311 265.6869 15.09188144510131
STARLINK-4531           
1 53425U 22097AP  26068.40418644 -.00000925  00000+0 -40038-4 0  9998
2 53425  53.2169 115.4028 0001462  94.1137 266.0022 15.08839307198578
